{
  "norad_id": 40063,
  "name": "GONETS-M 10",
  "history": [
    {
      "epoch": "2026-03-28T21:34:32.539008Z",
      "apogee_km": 1511.097980758127,
      "perigee_km": 1477.2077728385111,
      "latitude_deg": 6.115533486507652e-05,
      "longitude_deg": -152.40318986233595,
      "height_km": 1483.8412148808966,
      "semi_major_axis_km": 7872.289876798319,
      "eccentricity": 0.0021525,
      "inclination_deg": 82.5167,
      "raan_deg": 357.5452,
      "arg_perigee_deg": 320.1816,
      "mean_anomaly_deg": 39.7684,
      "mean_motion_rev_day": 12.42942808
    },
    {
      "epoch": "2026-03-29T05:18:11.020032Z",
      "apogee_km": 1511.083544053481,
      "perigee_km": 1477.2216775216393,
      "latitude_deg": -2.2301878035881582e-06,
      "longitude_deg": 91.16931309754149,
      "height_km": 1483.9893501948727,
      "semi_major_axis_km": 7872.2896107875595,
      "eccentricity": 0.0021507,
      "inclination_deg": 82.5168,
      "raan_deg": 357.3454,
      "arg_perigee_deg": 319.4597,
      "mean_anomaly_deg": 40.488,
      "mean_motion_rev_day": 12.42942871
    },
    {
      "epoch": "2026-03-30T04:29:06.516672Z",
      "apogee_km": 1511.0468872185784,
      "perigee_km": 1477.2574476541076,
      "latitude_deg": -5.848682063495008e-06,
      "longitude_deg": 101.88642294200771,
      "height_km": 1484.4402946271189,
      "semi_major_axis_km": 7872.289167436343,
      "eccentricity": 0.0021461,
      "inclination_deg": 82.5169,
      "raan_deg": 356.7458,
      "arg_perigee_deg": 317.2936,
      "mean_anomaly_deg": 42.6475,
      "mean_motion_rev_day": 12.42942976
    },
    {
      "epoch": "2026-03-30T06:25:01.142112Z",
      "apogee_km": 1511.0506081736703,
      "perigee_km": 1477.2553396530593,
      "latitude_deg": 3.679445148225451e-05,
      "longitude_deg": 72.77958474278653,
      "height_km": 1484.478039968468,
      "semi_major_axis_km": 7872.2899739133645,
      "eccentricity": 0.00214647,
      "inclination_deg": 82.5169,
      "raan_deg": 356.6959,
      "arg_perigee_deg": 317.0984,
      "mean_anomaly_deg": 42.8421,
      "mean_motion_rev_day": 12.42942785
    },
    {
      "epoch": "2026-03-30T14:08:39.629184Z",
      "apogee_km": 1511.0408670778643,
      "perigee_km": 1477.263079334747,
      "latitude_deg": 4.0882967636356423e-05,
      "longitude_deg": -43.64802844752976,
      "height_km": 1484.631667377661,
      "semi_major_axis_km": 7872.288973206305,
      "eccentricity": 0.00214536,
      "inclination_deg": 82.517,
      "raan_deg": 356.496,
      "arg_perigee_deg": 316.3641,
      "mean_anomaly_deg": 43.5742,
      "mean_motion_rev_day": 12.42943022
    },
    {
      "epoch": "2026-03-30T23:48:12.765024Z",
      "apogee_km": 1511.0332680683987,
      "perigee_km": 1477.2718521692914,
      "latitude_deg": -6.416995438650903e-05,
      "longitude_deg": 170.81740285760173,
      "height_km": 1484.8230811469411,
      "semi_major_axis_km": 7872.289560118845,
      "eccentricity": 0.00214432,
      "inclination_deg": 82.5171,
      "raan_deg": 356.2462,
      "arg_perigee_deg": 315.4612,
      "mean_anomaly_deg": 44.4743,
      "mean_motion_rev_day": 12.42942883
    },
    {
      "epoch": "2026-03-31T19:07:18.986592Z",
      "apogee_km": 1511.008994809361,
      "perigee_km": 1477.2919874847776,
      "latitude_deg": 2.177836394633026e-05,
      "longitude_deg": -120.25148626677716,
      "height_km": 1485.2074432126444,
      "semi_major_axis_km": 7872.287491147069,
      "eccentricity": 0.0021415,
      "inclination_deg": 82.5172,
      "raan_deg": 355.7466,
      "arg_perigee_deg": 313.6913,
      "mean_anomaly_deg": 46.2392,
      "mean_motion_rev_day": 12.42943373
    },
    {
      "epoch": "2026-04-01T20:14:09.124224Z",
      "apogee_km": 1510.9792957338432,
      "perigee_km": 1477.3236879734704,
      "latitude_deg": 4.6595106501747434e-05,
      "longitude_deg": -138.6411808362204,
      "height_km": 1485.735392076039,
      "semi_major_axis_km": 7872.2884918536565,
      "eccentricity": 0.0021376,
      "inclination_deg": 82.5174,
      "raan_deg": 355.0972,
      "arg_perigee_deg": 311.3526,
      "mean_anomaly_deg": 48.5715,
      "mean_motion_rev_day": 12.42943136
    },
    {
      "epoch": "2026-04-02T19:25:04.633824Z",
      "apogee_km": 1510.9596994535495,
      "perigee_km": 1477.3450238792338,
      "latitude_deg": 1.1471701130127652e-05,
      "longitude_deg": -127.92392911081768,
      "height_km": 1486.235642510177,
      "semi_major_axis_km": 7872.289361666391,
      "eccentricity": 0.002135,
      "inclination_deg": 82.5175,
      "raan_deg": 354.4978,
      "arg_perigee_deg": 309.1798,
      "mean_anomaly_deg": 50.7385,
      "mean_motion_rev_day": 12.4294293
    },
    {
      "epoch": "2026-04-02T21:20:59.267040Z",
      "apogee_km": 1510.9515325457505,
      "perigee_km": 1477.3535454680132,
      "latitude_deg": 5.1802273389448907e-05,
      "longitude_deg": -157.03080013826508,
      "height_km": 1486.2778390952399,
      "semi_major_axis_km": 7872.289539006882,
      "eccentricity": 0.00213394,
      "inclination_deg": 82.5175,
      "raan_deg": 354.4479,
      "arg_perigee_deg": 309.0182,
      "mean_anomaly_deg": 50.8998,
      "mean_motion_rev_day": 12.42942888
    },
    {
      "epoch": "2026-04-03T20:31:54.761088Z",
      "apogee_km": 1510.9269872340274,
      "perigee_km": 1477.3768662859611,
      "latitude_deg": 2.062413413424129e-05,
      "longitude_deg": -146.3135836651327,
      "height_km": 1486.7893642443296,
      "semi_major_axis_km": 7872.288926759994,
      "eccentricity": 0.0021309,
      "inclination_deg": 82.5173,
      "raan_deg": 353.8484,
      "arg_perigee_deg": 306.8633,
      "mean_anomaly_deg": 53.0493,
      "mean_motion_rev_day": 12.42943033
    },
    {
      "epoch": "2026-04-04T06:11:27.888288Z",
      "apogee_km": 1510.908132611592,
      "perigee_km": 1477.396269819369,
      "latitude_deg": 6.2465482010231546e-06,
      "longitude_deg": 68.15199486926308,
      "height_km": 1487.016217760046,
      "semi_major_axis_km": 7872.289201215481,
      "eccentricity": 0.00212847,
      "inclination_deg": 82.5172,
      "raan_deg": 353.5987,
      "arg_perigee_deg": 305.9486,
      "mean_anomaly_deg": 53.9619,
      "mean_motion_rev_day": 12.42942968
    },
    {
      "epoch": "2026-04-05T15:01:56.475840Z",
      "apogee_km": 1510.8672551580848,
      "perigee_km": 1477.4300367682808,
      "latitude_deg": -1.3011789504510465e-05,
      "longitude_deg": -66.66516748592176,
      "height_km": 1487.7791935625942,
      "semi_major_axis_km": 7872.285645963182,
      "eccentricity": 0.00212373,
      "inclination_deg": 82.5167,
      "raan_deg": 352.7494,
      "arg_perigee_deg": 302.8527,
      "mean_anomaly_deg": 57.0508,
      "mean_motion_rev_day": 12.4294381
    },
    {
      "epoch": "2026-04-05T20:49:40.382400Z",
      "apogee_km": 1510.8653170015987,
      "perigee_km": 1477.4364337675652,
      "latitude_deg": 2.648354167999688e-05,
      "longitude_deg": -153.98592069906323,
      "height_km": 1487.9116270108073,
      "semi_major_axis_km": 7872.287875384582,
      "eccentricity": 0.0021232,
      "inclination_deg": 82.5166,
      "raan_deg": 352.5996,
      "arg_perigee_deg": 302.3317,
      "mean_anomaly_deg": 57.5707,
      "mean_motion_rev_day": 12.42943282
    }
  ]
}